{
"type": "FeatureCollection",
"name": "brunnen",
"features": [
{ "type": "Feature", "properties": { "osm_type": "node", "osm_id": 1710054899, "category": "well", "type_de": "Brunnen", "all_tags": { "man_made": "water_well" }, "name": null, "ref": null, "operator": null, "access": null, "description": null, "note": null, "check_date": null, "fire_hydrant_type": null, "fire_hydrant_diameter": null, "fire_hydrant_pressure": null, "fire_hydrant_couplings": null, "fire_hydrant_position": null, "water_source": null, "water_tank_volume": null, "capacity": null, "diameter": null, "pressure": null, "source": null, "lon": 9.4283493, "lat": 53.6024477 }, "geometry": { "type": "Point", "coordinates": [ 9.4283493, 53.6024477 ] } },
{ "type": "Feature", "properties": { "osm_type": "node", "osm_id": 1710054918, "category": "well", "type_de": "Brunnen", "all_tags": { "man_made": "water_well" }, "name": null, "ref": null, "operator": null, "access": null, "description": null, "note": null, "check_date": null, "fire_hydrant_type": null, "fire_hydrant_diameter": null, "fire_hydrant_pressure": null, "fire_hydrant_couplings": null, "fire_hydrant_position": null, "water_source": null, "water_tank_volume": null, "capacity": null, "diameter": null, "pressure": null, "source": null, "lon": 9.429945, "lat": 53.6040278 }, "geometry": { "type": "Point", "coordinates": [ 9.429945, 53.6040278 ] } },
{ "type": "Feature", "properties": { "osm_type": "node", "osm_id": 1710054934, "category": "well", "type_de": "Brunnen", "all_tags": { "man_made": "water_well" }, "name": null, "ref": null, "operator": null, "access": null, "description": null, "note": null, "check_date": null, "fire_hydrant_type": null, "fire_hydrant_diameter": null, "fire_hydrant_pressure": null, "fire_hydrant_couplings": null, "fire_hydrant_position": null, "water_source": null, "water_tank_volume": null, "capacity": null, "diameter": null, "pressure": null, "source": null, "lon": 9.4283234, "lat": 53.604658 }, "geometry": { "type": "Point", "coordinates": [ 9.4283234, 53.604658 ] } },
{ "type": "Feature", "properties": { "osm_type": "node", "osm_id": 1710054945, "category": "well", "type_de": "Brunnen", "all_tags": { "man_made": "water_well" }, "name": null, "ref": null, "operator": null, "access": null, "description": null, "note": null, "check_date": null, "fire_hydrant_type": null, "fire_hydrant_diameter": null, "fire_hydrant_pressure": null, "fire_hydrant_couplings": null, "fire_hydrant_position": null, "water_source": null, "water_tank_volume": null, "capacity": null, "diameter": null, "pressure": null, "source": null, "lon": 9.4289436, "lat": 53.6058467 }, "geometry": { "type": "Point", "coordinates": [ 9.4289436, 53.6058467 ] } },
{ "type": "Feature", "properties": { "osm_type": "node", "osm_id": 1710054966, "category": "well", "type_de": "Brunnen", "all_tags": { "man_made": "water_well" }, "name": null, "ref": null, "operator": null, "access": null, "description": null, "note": null, "check_date": null, "fire_hydrant_type": null, "fire_hydrant_diameter": null, "fire_hydrant_pressure": null, "fire_hydrant_couplings": null, "fire_hydrant_position": null, "water_source": null, "water_tank_volume": null, "capacity": null, "diameter": null, "pressure": null, "source": null, "lon": 9.4262693, "lat": 53.6060075 }, "geometry": { "type": "Point", "coordinates": [ 9.4262693, 53.6060075 ] } },
{ "type": "Feature", "properties": { "osm_type": "node", "osm_id": 9969584812, "category": "well", "type_de": "Brunnen", "all_tags": { "man_made": "water_well" }, "name": null, "ref": null, "operator": null, "access": null, "description": null, "note": null, "check_date": null, "fire_hydrant_type": null, "fire_hydrant_diameter": null, "fire_hydrant_pressure": null, "fire_hydrant_couplings": null, "fire_hydrant_position": null, "water_source": null, "water_tank_volume": null, "capacity": null, "diameter": null, "pressure": null, "source": null, "lon": 9.5009607, "lat": 53.4539215 }, "geometry": { "type": "Point", "coordinates": [ 9.5009607, 53.4539215 ] } },
{ "type": "Feature", "properties": { "osm_type": "node", "osm_id": 12099110529, "category": "well", "type_de": "Brunnen", "all_tags": { "disused": "yes", "historic": "yes", "man_made": "water_well", "pump": "no" }, "name": null, "ref": null, "operator": null, "access": null, "description": null, "note": null, "check_date": null, "fire_hydrant_type": null, "fire_hydrant_diameter": null, "fire_hydrant_pressure": null, "fire_hydrant_couplings": null, "fire_hydrant_position": null, "water_source": null, "water_tank_volume": null, "capacity": null, "diameter": null, "pressure": null, "source": null, "lon": 9.477633, "lat": 53.6017367 }, "geometry": { "type": "Point", "coordinates": [ 9.477633, 53.6017367 ] } },
{ "type": "Feature", "properties": { "osm_type": "node", "osm_id": 13704108109, "category": "well", "type_de": "Brunnen", "all_tags": { "heritage": "2", "historic": "yes", "man_made": "water_well", "pump": "no" }, "name": null, "ref": null, "operator": null, "access": null, "description": null, "note": null, "check_date": null, "fire_hydrant_type": null, "fire_hydrant_diameter": null, "fire_hydrant_pressure": null, "fire_hydrant_couplings": null, "fire_hydrant_position": null, "water_source": null, "water_tank_volume": null, "capacity": null, "diameter": null, "pressure": null, "source": null, "lon": 9.5346274, "lat": 53.5618107 }, "geometry": { "type": "Point", "coordinates": [ 9.5346274, 53.5618107 ] } },
{ "type": "Feature", "properties": { "osm_type": "way", "osm_id": 1367979693, "category": "well", "type_de": "Brunnen", "all_tags": { "access": "private", "drinking_water": "yes", "man_made": "water_well", "operator": "TWV Stader Land", "pump": "powered", "ref": "Hauptbrunnen 18" }, "name": null, "ref": "Hauptbrunnen 18", "operator": "TWV Stader Land", "access": "private", "description": null, "note": null, "check_date": null, "fire_hydrant_type": null, "fire_hydrant_diameter": null, "fire_hydrant_pressure": null, "fire_hydrant_couplings": null, "fire_hydrant_position": null, "water_source": null, "water_tank_volume": null, "capacity": null, "diameter": null, "pressure": null, "source": null, "lon": 9.5618582, "lat": 53.5297301 }, "geometry": { "type": "LineString", "coordinates": [ [ 9.5618335, 53.5299642 ], [ 9.5620565, 53.5298464 ], [ 9.5618582, 53.5297301 ], [ 9.5617471, 53.5297912 ], [ 9.5616495, 53.5298448 ], [ 9.5618335, 53.5299642 ] ] } },
{ "type": "Feature", "properties": { "osm_type": "way", "osm_id": 1367980707, "category": "well", "type_de": "Brunnen", "all_tags": { "access": "private", "drinking_water": "yes", "man_made": "water_well", "operator": "TWV Stader Land", "pump": "powered", "ref": "Hauptbrunnen 13" }, "name": null, "ref": "Hauptbrunnen 13", "operator": "TWV Stader Land", "access": "private", "description": null, "note": null, "check_date": null, "fire_hydrant_type": null, "fire_hydrant_diameter": null, "fire_hydrant_pressure": null, "fire_hydrant_couplings": null, "fire_hydrant_position": null, "water_source": null, "water_tank_volume": null, "capacity": null, "diameter": null, "pressure": null, "source": null, "lon": 9.5603825, "lat": 53.5304867 }, "geometry": { "type": "LineString", "coordinates": [ [ 9.5603, 53.5305631 ], [ 9.5606475, 53.5306956 ], [ 9.5607299, 53.5306192 ], [ 9.5603825, 53.5304867 ], [ 9.5603, 53.5305631 ] ] } }
]
}
