{
"type": "FeatureCollection",
"name": "loeschwasserbehaelter_teiche",
"features": [
{ "type": "Feature", "properties": { "osm_type": "node", "osm_id": 1878384773, "category": "storage", "type_de": "Löschwasserbehälter/Zisterne", "all_tags": { "description": "ehemaliges Feuerwehrgerätehaus", "emergency": "water_tank", "name": "Im Dorfe", "survey:date": "2022-07-08", "water_tank:volume": "~ 60m³" }, "name": "Im Dorfe", "ref": null, "operator": null, "access": null, "description": "ehemaliges Feuerwehrgerätehaus", "note": null, "check_date": null, "fire_hydrant_type": null, "fire_hydrant_diameter": null, "fire_hydrant_pressure": null, "fire_hydrant_couplings": null, "fire_hydrant_position": null, "water_source": null, "water_tank_volume": "~ 60m³", "capacity": null, "diameter": null, "pressure": null, "source": null, "lon": 9.6021678, "lat": 53.3792778 }, "geometry": { "type": "Point", "coordinates": [ 9.6021678, 53.3792778 ] } },
{ "type": "Feature", "properties": { "osm_type": "node", "osm_id": 1878400174, "category": "storage", "type_de": "Löschwasserbehälter/Zisterne", "all_tags": { "emergency": "water_tank", "water_tank:volume": "40 m³" }, "name": null, "ref": null, "operator": null, "access": null, "description": null, "note": null, "check_date": null, "fire_hydrant_type": null, "fire_hydrant_diameter": null, "fire_hydrant_pressure": null, "fire_hydrant_couplings": null, "fire_hydrant_position": null, "water_source": null, "water_tank_volume": "40 m³", "capacity": null, "diameter": null, "pressure": null, "source": null, "lon": 9.5979824, "lat": 53.3766957 }, "geometry": { "type": "Point", "coordinates": [ 9.5979824, 53.3766957 ] } },
{ "type": "Feature", "properties": { "osm_type": "node", "osm_id": 1881021589, "category": "storage", "type_de": "Löschwasserbehälter/Zisterne", "all_tags": { "emergency": "water_tank", "survey:date": "2022-07-08", "water_tank:volume": "40 m³" }, "name": null, "ref": null, "operator": null, "access": null, "description": null, "note": null, "check_date": null, "fire_hydrant_type": null, "fire_hydrant_diameter": null, "fire_hydrant_pressure": null, "fire_hydrant_couplings": null, "fire_hydrant_position": null, "water_source": null, "water_tank_volume": "40 m³", "capacity": null, "diameter": null, "pressure": null, "source": null, "lon": 9.5859158, "lat": 53.3800905 }, "geometry": { "type": "Point", "coordinates": [ 9.5859158, 53.3800905 ] } },
{ "type": "Feature", "properties": { "osm_type": "node", "osm_id": 1881022954, "category": "storage", "type_de": "Löschwasserbehälter/Zisterne", "all_tags": { "emergency": "water_tank", "survey:date": "2022-07-08", "water_tank:volume": "40 m³" }, "name": null, "ref": null, "operator": null, "access": null, "description": null, "note": null, "check_date": null, "fire_hydrant_type": null, "fire_hydrant_diameter": null, "fire_hydrant_pressure": null, "fire_hydrant_couplings": null, "fire_hydrant_position": null, "water_source": null, "water_tank_volume": "40 m³", "capacity": null, "diameter": null, "pressure": null, "source": null, "lon": 9.6107176, "lat": 53.3836749 }, "geometry": { "type": "Point", "coordinates": [ 9.6107176, 53.3836749 ] } },
{ "type": "Feature", "properties": { "osm_type": "node", "osm_id": 2463357800, "category": "storage", "type_de": "Löschwasserbehälter/Zisterne", "all_tags": { "emergency": "water_tank", "water_tank:volume": "50" }, "name": null, "ref": null, "operator": null, "access": null, "description": null, "note": null, "check_date": null, "fire_hydrant_type": null, "fire_hydrant_diameter": null, "fire_hydrant_pressure": null, "fire_hydrant_couplings": null, "fire_hydrant_position": null, "water_source": null, "water_tank_volume": "50", "capacity": null, "diameter": null, "pressure": null, "source": null, "lon": 9.6665643, "lat": 53.4472199 }, "geometry": { "type": "Point", "coordinates": [ 9.6665643, 53.4472199 ] } },
{ "type": "Feature", "properties": { "osm_type": "node", "osm_id": 2463357801, "category": "storage", "type_de": "Löschwasserteich", "all_tags": { "emergency": "fire_water_pond", "water_source": "pond" }, "name": null, "ref": null, "operator": null, "access": null, "description": null, "note": null, "check_date": null, "fire_hydrant_type": null, "fire_hydrant_diameter": null, "fire_hydrant_pressure": null, "fire_hydrant_couplings": null, "fire_hydrant_position": null, "water_source": "pond", "water_tank_volume": null, "capacity": null, "diameter": null, "pressure": null, "source": null, "lon": 9.6666706, "lat": 53.4472283 }, "geometry": { "type": "Point", "coordinates": [ 9.6666706, 53.4472283 ] } },
{ "type": "Feature", "properties": { "osm_type": "node", "osm_id": 2463357818, "category": "storage", "type_de": "Löschwasserbehälter/Zisterne", "all_tags": { "emergency": "water_tank", "water_tank:volume": "58" }, "name": null, "ref": null, "operator": null, "access": null, "description": null, "note": null, "check_date": null, "fire_hydrant_type": null, "fire_hydrant_diameter": null, "fire_hydrant_pressure": null, "fire_hydrant_couplings": null, "fire_hydrant_position": null, "water_source": null, "water_tank_volume": "58", "capacity": null, "diameter": null, "pressure": null, "source": null, "lon": 9.6628073, "lat": 53.4481574 }, "geometry": { "type": "Point", "coordinates": [ 9.6628073, 53.4481574 ] } },
{ "type": "Feature", "properties": { "osm_type": "node", "osm_id": 3126369699, "category": "storage", "type_de": "Löschwasserbehälter/Zisterne", "all_tags": { "emergency": "water_tank" }, "name": null, "ref": null, "operator": null, "access": null, "description": null, "note": null, "check_date": null, "fire_hydrant_type": null, "fire_hydrant_diameter": null, "fire_hydrant_pressure": null, "fire_hydrant_couplings": null, "fire_hydrant_position": null, "water_source": null, "water_tank_volume": null, "capacity": null, "diameter": null, "pressure": null, "source": null, "lon": 9.611389, "lat": 53.5392359 }, "geometry": { "type": "Point", "coordinates": [ 9.611389, 53.5392359 ] } },
{ "type": "Feature", "properties": { "osm_type": "node", "osm_id": 3126369906, "category": "storage", "type_de": "Löschwasserbehälter/Zisterne", "all_tags": { "emergency": "water_tank" }, "name": null, "ref": null, "operator": null, "access": null, "description": null, "note": null, "check_date": null, "fire_hydrant_type": null, "fire_hydrant_diameter": null, "fire_hydrant_pressure": null, "fire_hydrant_couplings": null, "fire_hydrant_position": null, "water_source": null, "water_tank_volume": null, "capacity": null, "diameter": null, "pressure": null, "source": null, "lon": 9.6117387, "lat": 53.5414548 }, "geometry": { "type": "Point", "coordinates": [ 9.6117387, 53.5414548 ] } },
{ "type": "Feature", "properties": { "osm_type": "node", "osm_id": 3126370062, "category": "storage", "type_de": "Löschwasserbehälter/Zisterne", "all_tags": { "emergency": "water_tank" }, "name": null, "ref": null, "operator": null, "access": null, "description": null, "note": null, "check_date": null, "fire_hydrant_type": null, "fire_hydrant_diameter": null, "fire_hydrant_pressure": null, "fire_hydrant_couplings": null, "fire_hydrant_position": null, "water_source": null, "water_tank_volume": null, "capacity": null, "diameter": null, "pressure": null, "source": null, "lon": 9.6073718, "lat": 53.5433725 }, "geometry": { "type": "Point", "coordinates": [ 9.6073718, 53.5433725 ] } },
{ "type": "Feature", "properties": { "osm_type": "node", "osm_id": 3424856187, "category": "storage", "type_de": "Löschwasserbehälter/Zisterne", "all_tags": { "emergency": "water_tank", "water_tank:volume": "10000" }, "name": null, "ref": null, "operator": null, "access": null, "description": null, "note": null, "check_date": null, "fire_hydrant_type": null, "fire_hydrant_diameter": null, "fire_hydrant_pressure": null, "fire_hydrant_couplings": null, "fire_hydrant_position": null, "water_source": null, "water_tank_volume": "10000", "capacity": null, "diameter": null, "pressure": null, "source": null, "lon": 9.6082578, "lat": 53.4310019 }, "geometry": { "type": "Point", "coordinates": [ 9.6082578, 53.4310019 ] } },
{ "type": "Feature", "properties": { "osm_type": "node", "osm_id": 3924071721, "category": "storage", "type_de": "Löschwasserbehälter/Zisterne", "all_tags": { "emergency": "water_tank" }, "name": null, "ref": null, "operator": null, "access": null, "description": null, "note": null, "check_date": null, "fire_hydrant_type": null, "fire_hydrant_diameter": null, "fire_hydrant_pressure": null, "fire_hydrant_couplings": null, "fire_hydrant_position": null, "water_source": null, "water_tank_volume": null, "capacity": null, "diameter": null, "pressure": null, "source": null, "lon": 9.5741612, "lat": 53.5134253 }, "geometry": { "type": "Point", "coordinates": [ 9.5741612, 53.5134253 ] } },
{ "type": "Feature", "properties": { "osm_type": "node", "osm_id": 4693303132, "category": "storage", "type_de": "Löschwasserbehälter/Zisterne", "all_tags": { "description": "Zur Wettern 2 - Löschwasserbehälter Hofstelle Jantz", "emergency": "water_tank", "survey:date": "19.02.2017" }, "name": null, "ref": null, "operator": null, "access": null, "description": "Zur Wettern 2 - Löschwasserbehälter Hofstelle Jantz", "note": null, "check_date": null, "fire_hydrant_type": null, "fire_hydrant_diameter": null, "fire_hydrant_pressure": null, "fire_hydrant_couplings": null, "fire_hydrant_position": null, "water_source": null, "water_tank_volume": null, "capacity": null, "diameter": null, "pressure": null, "source": null, "lon": 9.373017, "lat": 53.6969034 }, "geometry": { "type": "Point", "coordinates": [ 9.373017, 53.6969034 ] } },
{ "type": "Feature", "properties": { "osm_type": "node", "osm_id": 5688005569, "category": "storage", "type_de": "Löschwasserbehälter/Zisterne", "all_tags": { "emergency": "water_tank", "name": "Löhe", "water_tank:volume": "30000" }, "name": "Löhe", "ref": null, "operator": null, "access": null, "description": null, "note": null, "check_date": null, "fire_hydrant_type": null, "fire_hydrant_diameter": null, "fire_hydrant_pressure": null, "fire_hydrant_couplings": null, "fire_hydrant_position": null, "water_source": null, "water_tank_volume": "30000", "capacity": null, "diameter": null, "pressure": null, "source": null, "lon": 9.5922983, "lat": 53.3669494 }, "geometry": { "type": "Point", "coordinates": [ 9.5922983, 53.3669494 ] } },
{ "type": "Feature", "properties": { "osm_type": "node", "osm_id": 5690973641, "category": "storage", "type_de": "Löschwasserbehälter/Zisterne", "all_tags": { "emergency": "water_tank" }, "name": null, "ref": null, "operator": null, "access": null, "description": null, "note": null, "check_date": null, "fire_hydrant_type": null, "fire_hydrant_diameter": null, "fire_hydrant_pressure": null, "fire_hydrant_couplings": null, "fire_hydrant_position": null, "water_source": null, "water_tank_volume": null, "capacity": null, "diameter": null, "pressure": null, "source": null, "lon": 9.5467222, "lat": 53.4094999 }, "geometry": { "type": "Point", "coordinates": [ 9.5467222, 53.4094999 ] } },
{ "type": "Feature", "properties": { "osm_type": "node", "osm_id": 5690976257, "category": "storage", "type_de": "Löschwasserbehälter/Zisterne", "all_tags": { "emergency": "water_tank", "water_tank:volume": "85 m³" }, "name": null, "ref": null, "operator": null, "access": null, "description": null, "note": null, "check_date": null, "fire_hydrant_type": null, "fire_hydrant_diameter": null, "fire_hydrant_pressure": null, "fire_hydrant_couplings": null, "fire_hydrant_position": null, "water_source": null, "water_tank_volume": "85 m³", "capacity": null, "diameter": null, "pressure": null, "source": null, "lon": 9.5509923, "lat": 53.4166877 }, "geometry": { "type": "Point", "coordinates": [ 9.5509923, 53.4166877 ] } },
{ "type": "Feature", "properties": { "osm_type": "node", "osm_id": 5691013895, "category": "storage", "type_de": "Löschwasserbehälter/Zisterne", "all_tags": { "emergency": "water_tank", "water_tank:volume": "67000" }, "name": null, "ref": null, "operator": null, "access": null, "description": null, "note": null, "check_date": null, "fire_hydrant_type": null, "fire_hydrant_diameter": null, "fire_hydrant_pressure": null, "fire_hydrant_couplings": null, "fire_hydrant_position": null, "water_source": null, "water_tank_volume": "67000", "capacity": null, "diameter": null, "pressure": null, "source": null, "lon": 9.551762, "lat": 53.3852753 }, "geometry": { "type": "Point", "coordinates": [ 9.551762, 53.3852753 ] } },
{ "type": "Feature", "properties": { "osm_type": "node", "osm_id": 5705412016, "category": "storage", "type_de": "Löschwasserbehälter/Zisterne", "all_tags": { "emergency": "water_tank" }, "name": null, "ref": null, "operator": null, "access": null, "description": null, "note": null, "check_date": null, "fire_hydrant_type": null, "fire_hydrant_diameter": null, "fire_hydrant_pressure": null, "fire_hydrant_couplings": null, "fire_hydrant_position": null, "water_source": null, "water_tank_volume": null, "capacity": null, "diameter": null, "pressure": null, "source": null, "lon": 9.6031022, "lat": 53.4151082 }, "geometry": { "type": "Point", "coordinates": [ 9.6031022, 53.4151082 ] } },
{ "type": "Feature", "properties": { "osm_type": "node", "osm_id": 5705413779, "category": "storage", "type_de": "Löschwasserbehälter/Zisterne", "all_tags": { "emergency": "water_tank" }, "name": null, "ref": null, "operator": null, "access": null, "description": null, "note": null, "check_date": null, "fire_hydrant_type": null, "fire_hydrant_diameter": null, "fire_hydrant_pressure": null, "fire_hydrant_couplings": null, "fire_hydrant_position": null, "water_source": null, "water_tank_volume": null, "capacity": null, "diameter": null, "pressure": null, "source": null, "lon": 9.6068358, "lat": 53.4116359 }, "geometry": { "type": "Point", "coordinates": [ 9.6068358, 53.4116359 ] } },
{ "type": "Feature", "properties": { "osm_type": "node", "osm_id": 5705451580, "category": "storage", "type_de": "Löschwasserbehälter/Zisterne", "all_tags": { "emergency": "water_tank" }, "name": null, "ref": null, "operator": null, "access": null, "description": null, "note": null, "check_date": null, "fire_hydrant_type": null, "fire_hydrant_diameter": null, "fire_hydrant_pressure": null, "fire_hydrant_couplings": null, "fire_hydrant_position": null, "water_source": null, "water_tank_volume": null, "capacity": null, "diameter": null, "pressure": null, "source": null, "lon": 9.6096575, "lat": 53.4179649 }, "geometry": { "type": "Point", "coordinates": [ 9.6096575, 53.4179649 ] } },
{ "type": "Feature", "properties": { "osm_type": "node", "osm_id": 5705737186, "category": "storage", "type_de": "Löschwasserbehälter/Zisterne", "all_tags": { "emergency": "water_tank", "name": "Estetalstr." }, "name": "Estetalstr.", "ref": null, "operator": null, "access": null, "description": null, "note": null, "check_date": null, "fire_hydrant_type": null, "fire_hydrant_diameter": null, "fire_hydrant_pressure": null, "fire_hydrant_couplings": null, "fire_hydrant_position": null, "water_source": null, "water_tank_volume": null, "capacity": null, "diameter": null, "pressure": null, "source": null, "lon": 9.6560705, "lat": 53.4159427 }, "geometry": { "type": "Point", "coordinates": [ 9.6560705, 53.4159427 ] } },
{ "type": "Feature", "properties": { "osm_type": "node", "osm_id": 5705771325, "category": "storage", "type_de": "Löschwasserbehälter/Zisterne", "all_tags": { "emergency": "water_tank" }, "name": null, "ref": null, "operator": null, "access": null, "description": null, "note": null, "check_date": null, "fire_hydrant_type": null, "fire_hydrant_diameter": null, "fire_hydrant_pressure": null, "fire_hydrant_couplings": null, "fire_hydrant_position": null, "water_source": null, "water_tank_volume": null, "capacity": null, "diameter": null, "pressure": null, "source": null, "lon": 9.6542305, "lat": 53.4170074 }, "geometry": { "type": "Point", "coordinates": [ 9.6542305, 53.4170074 ] } },
{ "type": "Feature", "properties": { "osm_type": "node", "osm_id": 5716965898, "category": "storage", "type_de": "Löschwasserbehälter/Zisterne", "all_tags": { "emergency": "water_tank", "name": "Am Bredendorn" }, "name": "Am Bredendorn", "ref": null, "operator": null, "access": null, "description": null, "note": null, "check_date": null, "fire_hydrant_type": null, "fire_hydrant_diameter": null, "fire_hydrant_pressure": null, "fire_hydrant_couplings": null, "fire_hydrant_position": null, "water_source": null, "water_tank_volume": null, "capacity": null, "diameter": null, "pressure": null, "source": null, "lon": 9.6030486, "lat": 53.4173655 }, "geometry": { "type": "Point", "coordinates": [ 9.6030486, 53.4173655 ] } },
{ "type": "Feature", "properties": { "osm_type": "node", "osm_id": 5890683442, "category": "storage", "type_de": "Löschwasserbehälter/Zisterne", "all_tags": { "emergency": "water_tank", "name": "Klein Nindorf" }, "name": "Klein Nindorf", "ref": null, "operator": null, "access": null, "description": null, "note": null, "check_date": null, "fire_hydrant_type": null, "fire_hydrant_diameter": null, "fire_hydrant_pressure": null, "fire_hydrant_couplings": null, "fire_hydrant_position": null, "water_source": null, "water_tank_volume": null, "capacity": null, "diameter": null, "pressure": null, "source": null, "lon": 9.6556091, "lat": 53.4286113 }, "geometry": { "type": "Point", "coordinates": [ 9.6556091, 53.4286113 ] } },
{ "type": "Feature", "properties": { "osm_type": "node", "osm_id": 5996337062, "category": "storage", "type_de": "Löschwasserbehälter/Zisterne", "all_tags": { "emergency": "water_tank", "name": "RISA Zisterne Am Trafo Kartoffel Lager", "ref": "Fredenbeck 006", "water_tank:volume": "100" }, "name": "RISA Zisterne Am Trafo Kartoffel Lager", "ref": "Fredenbeck 006", "operator": null, "access": null, "description": null, "note": null, "check_date": null, "fire_hydrant_type": null, "fire_hydrant_diameter": null, "fire_hydrant_pressure": null, "fire_hydrant_couplings": null, "fire_hydrant_position": null, "water_source": null, "water_tank_volume": "100", "capacity": null, "diameter": null, "pressure": null, "source": null, "lon": 9.3954121, "lat": 53.5178092 }, "geometry": { "type": "Point", "coordinates": [ 9.3954121, 53.5178092 ] } },
{ "type": "Feature", "properties": { "osm_type": "node", "osm_id": 5998709007, "category": "storage", "type_de": "Löschwasserbehälter/Zisterne", "all_tags": { "emergency": "water_tank" }, "name": null, "ref": null, "operator": null, "access": null, "description": null, "note": null, "check_date": null, "fire_hydrant_type": null, "fire_hydrant_diameter": null, "fire_hydrant_pressure": null, "fire_hydrant_couplings": null, "fire_hydrant_position": null, "water_source": null, "water_tank_volume": null, "capacity": null, "diameter": null, "pressure": null, "source": null, "lon": 9.3797602, "lat": 53.5493056 }, "geometry": { "type": "Point", "coordinates": [ 9.3797602, 53.5493056 ] } },
{ "type": "Feature", "properties": { "osm_type": "node", "osm_id": 5999628685, "category": "storage", "type_de": "Löschwasserbehälter/Zisterne", "all_tags": { "emergency": "water_tank" }, "name": null, "ref": null, "operator": null, "access": null, "description": null, "note": null, "check_date": null, "fire_hydrant_type": null, "fire_hydrant_diameter": null, "fire_hydrant_pressure": null, "fire_hydrant_couplings": null, "fire_hydrant_position": null, "water_source": null, "water_tank_volume": null, "capacity": null, "diameter": null, "pressure": null, "source": null, "lon": 9.3641892, "lat": 53.5547194 }, "geometry": { "type": "Point", "coordinates": [ 9.3641892, 53.5547194 ] } },
{ "type": "Feature", "properties": { "osm_type": "node", "osm_id": 5999630107, "category": "storage", "type_de": "Löschwasserbehälter/Zisterne", "all_tags": { "description": "Löschteich Große Straße 11", "emergency": "water_tank" }, "name": null, "ref": null, "operator": null, "access": null, "description": "Löschteich Große Straße 11", "note": null, "check_date": null, "fire_hydrant_type": null, "fire_hydrant_diameter": null, "fire_hydrant_pressure": null, "fire_hydrant_couplings": null, "fire_hydrant_position": null, "water_source": null, "water_tank_volume": null, "capacity": null, "diameter": null, "pressure": null, "source": null, "lon": 9.4824669, "lat": 53.5250648 }, "geometry": { "type": "Point", "coordinates": [ 9.4824669, 53.5250648 ] } },
{ "type": "Feature", "properties": { "osm_type": "node", "osm_id": 6010369103, "category": "storage", "type_de": "Löschwasserbehälter/Zisterne", "all_tags": { "emergency": "water_tank", "name": "Löschwasserteich", "ref": "Fredenbeck 035" }, "name": "Löschwasserteich", "ref": "Fredenbeck 035", "operator": null, "access": null, "description": null, "note": null, "check_date": null, "fire_hydrant_type": null, "fire_hydrant_diameter": null, "fire_hydrant_pressure": null, "fire_hydrant_couplings": null, "fire_hydrant_position": null, "water_source": null, "water_tank_volume": null, "capacity": null, "diameter": null, "pressure": null, "source": null, "lon": 9.3796849, "lat": 53.5171573 }, "geometry": { "type": "Point", "coordinates": [ 9.3796849, 53.5171573 ] } },
{ "type": "Feature", "properties": { "osm_type": "node", "osm_id": 6034138663, "category": "storage", "type_de": "Löschwasserbehälter/Zisterne", "all_tags": { "emergency": "water_tank" }, "name": null, "ref": null, "operator": null, "access": null, "description": null, "note": null, "check_date": null, "fire_hydrant_type": null, "fire_hydrant_diameter": null, "fire_hydrant_pressure": null, "fire_hydrant_couplings": null, "fire_hydrant_position": null, "water_source": null, "water_tank_volume": null, "capacity": null, "diameter": null, "pressure": null, "source": null, "lon": 9.409466, "lat": 53.5790916 }, "geometry": { "type": "Point", "coordinates": [ 9.409466, 53.5790916 ] } },
{ "type": "Feature", "properties": { "osm_type": "node", "osm_id": 6191634657, "category": "storage", "type_de": "Löschwasserbehälter/Zisterne", "all_tags": { "emergency": "water_tank", "name": "Sparkasse", "ref": "914" }, "name": "Sparkasse", "ref": "914", "operator": null, "access": null, "description": null, "note": null, "check_date": null, "fire_hydrant_type": null, "fire_hydrant_diameter": null, "fire_hydrant_pressure": null, "fire_hydrant_couplings": null, "fire_hydrant_position": null, "water_source": null, "water_tank_volume": null, "capacity": null, "diameter": null, "pressure": null, "source": null, "lon": 9.4747652, "lat": 53.6004145 }, "geometry": { "type": "Point", "coordinates": [ 9.4747652, 53.6004145 ] } },
{ "type": "Feature", "properties": { "osm_type": "node", "osm_id": 6191634659, "category": "storage", "type_de": "Löschwasserteich", "all_tags": { "emergency": "fire_water_pond", "name": "Klarenstrecker Damm (# 912)" }, "name": "Klarenstrecker Damm (# 912)", "ref": null, "operator": null, "access": null, "description": null, "note": null, "check_date": null, "fire_hydrant_type": null, "fire_hydrant_diameter": null, "fire_hydrant_pressure": null, "fire_hydrant_couplings": null, "fire_hydrant_position": null, "water_source": null, "water_tank_volume": null, "capacity": null, "diameter": null, "pressure": null, "source": null, "lon": 9.4837171, "lat": 53.5800061 }, "geometry": { "type": "Point", "coordinates": [ 9.4837171, 53.5800061 ] } },
{ "type": "Feature", "properties": { "osm_type": "node", "osm_id": 6191634661, "category": "storage", "type_de": "Löschwasserbehälter/Zisterne", "all_tags": { "emergency": "water_tank", "ref": "910" }, "name": null, "ref": "910", "operator": null, "access": null, "description": null, "note": null, "check_date": null, "fire_hydrant_type": null, "fire_hydrant_diameter": null, "fire_hydrant_pressure": null, "fire_hydrant_couplings": null, "fire_hydrant_position": null, "water_source": null, "water_tank_volume": null, "capacity": null, "diameter": null, "pressure": null, "source": null, "lon": 9.4775868, "lat": 53.6067918 }, "geometry": { "type": "Point", "coordinates": [ 9.4775868, 53.6067918 ] } },
{ "type": "Feature", "properties": { "osm_type": "node", "osm_id": 6191634662, "category": "storage", "type_de": "Löschwasserbehälter/Zisterne", "all_tags": { "emergency": "water_tank", "name": "Haddorfer Hauptstraße 80 (# 909)" }, "name": "Haddorfer Hauptstraße 80 (# 909)", "ref": null, "operator": null, "access": null, "description": null, "note": null, "check_date": null, "fire_hydrant_type": null, "fire_hydrant_diameter": null, "fire_hydrant_pressure": null, "fire_hydrant_couplings": null, "fire_hydrant_position": null, "water_source": null, "water_tank_volume": null, "capacity": null, "diameter": null, "pressure": null, "source": null, "lon": 9.4076818, "lat": 53.6022783 }, "geometry": { "type": "Point", "coordinates": [ 9.4076818, 53.6022783 ] } },
{ "type": "Feature", "properties": { "osm_type": "node", "osm_id": 6191634663, "category": "storage", "type_de": "Löschwasserbehälter/Zisterne", "all_tags": { "description": "Haddorfer Grenzweg 2a (# 908)", "emergency": "water_tank", "ref": "908" }, "name": null, "ref": "908", "operator": null, "access": null, "description": "Haddorfer Grenzweg 2a (# 908)", "note": null, "check_date": null, "fire_hydrant_type": null, "fire_hydrant_diameter": null, "fire_hydrant_pressure": null, "fire_hydrant_couplings": null, "fire_hydrant_position": null, "water_source": null, "water_tank_volume": null, "capacity": null, "diameter": null, "pressure": null, "source": null, "lon": 9.4257474, "lat": 53.5952853 }, "geometry": { "type": "Point", "coordinates": [ 9.4257474, 53.5952853 ] } },
{ "type": "Feature", "properties": { "osm_type": "node", "osm_id": 6191634664, "category": "storage", "type_de": "Löschwasserbehälter/Zisterne", "all_tags": { "emergency": "water_tank", "name": "Lange Reihe (# 907)" }, "name": "Lange Reihe (# 907)", "ref": null, "operator": null, "access": null, "description": null, "note": null, "check_date": null, "fire_hydrant_type": null, "fire_hydrant_diameter": null, "fire_hydrant_pressure": null, "fire_hydrant_couplings": null, "fire_hydrant_position": null, "water_source": null, "water_tank_volume": null, "capacity": null, "diameter": null, "pressure": null, "source": null, "lon": 9.4848847, "lat": 53.5919742 }, "geometry": { "type": "Point", "coordinates": [ 9.4848847, 53.5919742 ] } },
{ "type": "Feature", "properties": { "osm_type": "node", "osm_id": 6191634665, "category": "storage", "type_de": "Löschwasserbehälter/Zisterne", "all_tags": { "emergency": "water_tank", "name": "Carl-Benz-Straße (# 906)" }, "name": "Carl-Benz-Straße (# 906)", "ref": null, "operator": null, "access": null, "description": null, "note": null, "check_date": null, "fire_hydrant_type": null, "fire_hydrant_diameter": null, "fire_hydrant_pressure": null, "fire_hydrant_couplings": null, "fire_hydrant_position": null, "water_source": null, "water_tank_volume": null, "capacity": null, "diameter": null, "pressure": null, "source": null, "lon": 9.4955853, "lat": 53.581506 }, "geometry": { "type": "Point", "coordinates": [ 9.4955853, 53.581506 ] } },
{ "type": "Feature", "properties": { "osm_type": "node", "osm_id": 6191634666, "category": "storage", "type_de": "Löschwasserbehälter/Zisterne", "all_tags": { "emergency": "water_tank", "ref": "905" }, "name": null, "ref": "905", "operator": null, "access": null, "description": null, "note": null, "check_date": null, "fire_hydrant_type": null, "fire_hydrant_diameter": null, "fire_hydrant_pressure": null, "fire_hydrant_couplings": null, "fire_hydrant_position": null, "water_source": null, "water_tank_volume": null, "capacity": null, "diameter": null, "pressure": null, "source": null, "lon": 9.4698833, "lat": 53.5751109 }, "geometry": { "type": "Point", "coordinates": [ 9.4698833, 53.5751109 ] } },
{ "type": "Feature", "properties": { "osm_type": "node", "osm_id": 6191634667, "category": "storage", "type_de": "Löschwasserbehälter/Zisterne", "all_tags": { "emergency": "water_tank", "ref": "904" }, "name": null, "ref": "904", "operator": null, "access": null, "description": null, "note": null, "check_date": null, "fire_hydrant_type": null, "fire_hydrant_diameter": null, "fire_hydrant_pressure": null, "fire_hydrant_couplings": null, "fire_hydrant_position": null, "water_source": null, "water_tank_volume": null, "capacity": null, "diameter": null, "pressure": null, "source": null, "lon": 9.4731921, "lat": 53.5959751 }, "geometry": { "type": "Point", "coordinates": [ 9.4731921, 53.5959751 ] } },
{ "type": "Feature", "properties": { "osm_type": "node", "osm_id": 6238064796, "category": "storage", "type_de": "Löschwasserbehälter/Zisterne", "all_tags": { "emergency": "water_tank", "water_tank:volume": "100000" }, "name": null, "ref": null, "operator": null, "access": null, "description": null, "note": null, "check_date": null, "fire_hydrant_type": null, "fire_hydrant_diameter": null, "fire_hydrant_pressure": null, "fire_hydrant_couplings": null, "fire_hydrant_position": null, "water_source": null, "water_tank_volume": "100000", "capacity": null, "diameter": null, "pressure": null, "source": null, "lon": 9.5925021, "lat": 53.4695739 }, "geometry": { "type": "Point", "coordinates": [ 9.5925021, 53.4695739 ] } },
{ "type": "Feature", "properties": { "osm_type": "node", "osm_id": 6315799982, "category": "storage", "type_de": "Löschwasserbehälter/Zisterne", "all_tags": { "description": "Im Busch", "emergency": "water_tank", "survey:date": "2019-03-04", "water_tank:volume": "???" }, "name": null, "ref": null, "operator": null, "access": null, "description": "Im Busch", "note": null, "check_date": null, "fire_hydrant_type": null, "fire_hydrant_diameter": null, "fire_hydrant_pressure": null, "fire_hydrant_couplings": null, "fire_hydrant_position": null, "water_source": null, "water_tank_volume": "???", "capacity": null, "diameter": null, "pressure": null, "source": null, "lon": 9.2460626, "lat": 53.5047289 }, "geometry": { "type": "Point", "coordinates": [ 9.2460626, 53.5047289 ] } },
{ "type": "Feature", "properties": { "osm_type": "node", "osm_id": 6900226263, "category": "storage", "type_de": "Löschwasserbehälter/Zisterne", "all_tags": { "description": "Löschteich gegenüber Förster", "emergency": "water_tank", "survey:date": "2019-10-20" }, "name": null, "ref": null, "operator": null, "access": null, "description": "Löschteich gegenüber Förster", "note": null, "check_date": null, "fire_hydrant_type": null, "fire_hydrant_diameter": null, "fire_hydrant_pressure": null, "fire_hydrant_couplings": null, "fire_hydrant_position": null, "water_source": null, "water_tank_volume": null, "capacity": null, "diameter": null, "pressure": null, "source": null, "lon": 9.5097399, "lat": 53.5183056 }, "geometry": { "type": "Point", "coordinates": [ 9.5097399, 53.5183056 ] } },
{ "type": "Feature", "properties": { "osm_type": "node", "osm_id": 7506949700, "category": "storage", "type_de": "Löschwasserbehälter/Zisterne", "all_tags": { "drinking_water": "no", "emergency": "water_tank", "fire_hydrant:pressure": "suction", "name": "Großer Damm", "survey:date": "2020-05-11", "water_tank:volume": "60 m3" }, "name": "Großer Damm", "ref": null, "operator": null, "access": null, "description": null, "note": null, "check_date": null, "fire_hydrant_type": null, "fire_hydrant_diameter": null, "fire_hydrant_pressure": "suction", "fire_hydrant_couplings": null, "fire_hydrant_position": null, "water_source": null, "water_tank_volume": "60 m3", "capacity": null, "diameter": null, "pressure": null, "source": null, "lon": 9.4581985, "lat": 53.4015849 }, "geometry": { "type": "Point", "coordinates": [ 9.4581985, 53.4015849 ] } },
{ "type": "Feature", "properties": { "osm_type": "node", "osm_id": 7523979171, "category": "storage", "type_de": "Löschwasserbehälter/Zisterne", "all_tags": { "emergency": "water_tank", "survey:date": "15.05.2020", "water_tank:volume": "200 m3" }, "name": null, "ref": null, "operator": null, "access": null, "description": null, "note": null, "check_date": null, "fire_hydrant_type": null, "fire_hydrant_diameter": null, "fire_hydrant_pressure": null, "fire_hydrant_couplings": null, "fire_hydrant_position": null, "water_source": null, "water_tank_volume": "200 m3", "capacity": null, "diameter": null, "pressure": null, "source": null, "lon": 9.4469011, "lat": 53.4001224 }, "geometry": { "type": "Point", "coordinates": [ 9.4469011, 53.4001224 ] } },
{ "type": "Feature", "properties": { "osm_type": "node", "osm_id": 7524042643, "category": "storage", "type_de": "Löschwasserbehälter/Zisterne", "all_tags": { "emergency": "water_tank", "survey:date": "15.05.2020" }, "name": null, "ref": null, "operator": null, "access": null, "description": null, "note": null, "check_date": null, "fire_hydrant_type": null, "fire_hydrant_diameter": null, "fire_hydrant_pressure": null, "fire_hydrant_couplings": null, "fire_hydrant_position": null, "water_source": null, "water_tank_volume": null, "capacity": null, "diameter": null, "pressure": null, "source": null, "lon": 9.3968618, "lat": 53.4583963 }, "geometry": { "type": "Point", "coordinates": [ 9.3968618, 53.4583963 ] } },
{ "type": "Feature", "properties": { "osm_type": "node", "osm_id": 7524084946, "category": "storage", "type_de": "Löschwasserbehälter/Zisterne", "all_tags": { "description": "Zisterne unter dem Gerätehaus", "emergency": "water_tank", "survey:date": "15.05.2020" }, "name": null, "ref": null, "operator": null, "access": null, "description": "Zisterne unter dem Gerätehaus", "note": null, "check_date": null, "fire_hydrant_type": null, "fire_hydrant_diameter": null, "fire_hydrant_pressure": null, "fire_hydrant_couplings": null, "fire_hydrant_position": null, "water_source": null, "water_tank_volume": null, "capacity": null, "diameter": null, "pressure": null, "source": null, "lon": 9.3822531, "lat": 53.4489897 }, "geometry": { "type": "Point", "coordinates": [ 9.3822531, 53.4489897 ] } },
{ "type": "Feature", "properties": { "osm_type": "node", "osm_id": 7524171100, "category": "storage", "type_de": "Löschwasserbehälter/Zisterne", "all_tags": { "emergency": "water_tank", "survey:date": "15.05.2020" }, "name": null, "ref": null, "operator": null, "access": null, "description": null, "note": null, "check_date": null, "fire_hydrant_type": null, "fire_hydrant_diameter": null, "fire_hydrant_pressure": null, "fire_hydrant_couplings": null, "fire_hydrant_position": null, "water_source": null, "water_tank_volume": null, "capacity": null, "diameter": null, "pressure": null, "source": null, "lon": 9.4636837, "lat": 53.4345607 }, "geometry": { "type": "Point", "coordinates": [ 9.4636837, 53.4345607 ] } },
{ "type": "Feature", "properties": { "osm_type": "node", "osm_id": 7524214653, "category": "storage", "type_de": "Löschwasserbehälter/Zisterne", "all_tags": { "emergency": "water_tank", "survey:date": "15.05.2020" }, "name": null, "ref": null, "operator": null, "access": null, "description": null, "note": null, "check_date": null, "fire_hydrant_type": null, "fire_hydrant_diameter": null, "fire_hydrant_pressure": null, "fire_hydrant_couplings": null, "fire_hydrant_position": null, "water_source": null, "water_tank_volume": null, "capacity": null, "diameter": null, "pressure": null, "source": null, "lon": 9.4585821, "lat": 53.4362034 }, "geometry": { "type": "Point", "coordinates": [ 9.4585821, 53.4362034 ] } },
{ "type": "Feature", "properties": { "osm_type": "node", "osm_id": 7524256143, "category": "storage", "type_de": "Löschwasserbehälter/Zisterne", "all_tags": { "emergency": "water_tank", "survey:date": "15.05.2020" }, "name": null, "ref": null, "operator": null, "access": null, "description": null, "note": null, "check_date": null, "fire_hydrant_type": null, "fire_hydrant_diameter": null, "fire_hydrant_pressure": null, "fire_hydrant_couplings": null, "fire_hydrant_position": null, "water_source": null, "water_tank_volume": null, "capacity": null, "diameter": null, "pressure": null, "source": null, "lon": 9.4387767, "lat": 53.4584937 }, "geometry": { "type": "Point", "coordinates": [ 9.4387767, 53.4584937 ] } },
{ "type": "Feature", "properties": { "osm_type": "node", "osm_id": 7524297060, "category": "storage", "type_de": "Löschwasserbehälter/Zisterne", "all_tags": { "emergency": "water_tank", "survey:date": "2020-05-15", "water_tank:volume": "200000" }, "name": null, "ref": null, "operator": null, "access": null, "description": null, "note": null, "check_date": null, "fire_hydrant_type": null, "fire_hydrant_diameter": null, "fire_hydrant_pressure": null, "fire_hydrant_couplings": null, "fire_hydrant_position": null, "water_source": null, "water_tank_volume": "200000", "capacity": null, "diameter": null, "pressure": null, "source": null, "lon": 9.4281122, "lat": 53.4613363 }, "geometry": { "type": "Point", "coordinates": [ 9.4281122, 53.4613363 ] } },
{ "type": "Feature", "properties": { "osm_type": "node", "osm_id": 7524337303, "category": "storage", "type_de": "Löschwasserbehälter/Zisterne", "all_tags": { "emergency": "water_tank", "survey:date": "15.05.2020" }, "name": null, "ref": null, "operator": null, "access": null, "description": null, "note": null, "check_date": null, "fire_hydrant_type": null, "fire_hydrant_diameter": null, "fire_hydrant_pressure": null, "fire_hydrant_couplings": null, "fire_hydrant_position": null, "water_source": null, "water_tank_volume": null, "capacity": null, "diameter": null, "pressure": null, "source": null, "lon": 9.4783741, "lat": 53.4813072 }, "geometry": { "type": "Point", "coordinates": [ 9.4783741, 53.4813072 ] } },
{ "type": "Feature", "properties": { "osm_type": "node", "osm_id": 7524424006, "category": "storage", "type_de": "Löschwasserbehälter/Zisterne", "all_tags": { "emergency": "water_tank", "survey:date": "15.05.2020" }, "name": null, "ref": null, "operator": null, "access": null, "description": null, "note": null, "check_date": null, "fire_hydrant_type": null, "fire_hydrant_diameter": null, "fire_hydrant_pressure": null, "fire_hydrant_couplings": null, "fire_hydrant_position": null, "water_source": null, "water_tank_volume": null, "capacity": null, "diameter": null, "pressure": null, "source": null, "lon": 9.4719583, "lat": 53.4661219 }, "geometry": { "type": "Point", "coordinates": [ 9.4719583, 53.4661219 ] } },
{ "type": "Feature", "properties": { "osm_type": "node", "osm_id": 7528804462, "category": "storage", "type_de": "Löschwasserbehälter/Zisterne", "all_tags": { "emergency": "water_tank", "fire_hydrant:position": "green", "fire_hydrant:pressure": "suction", "survey:date": "2020-05-17", "water_source": "water_tank" }, "name": null, "ref": null, "operator": null, "access": null, "description": null, "note": null, "check_date": null, "fire_hydrant_type": null, "fire_hydrant_diameter": null, "fire_hydrant_pressure": "suction", "fire_hydrant_couplings": null, "fire_hydrant_position": "green", "water_source": "water_tank", "water_tank_volume": null, "capacity": null, "diameter": null, "pressure": null, "source": null, "lon": 9.4816764, "lat": 53.4554978 }, "geometry": { "type": "Point", "coordinates": [ 9.4816764, 53.4554978 ] } },
{ "type": "Feature", "properties": { "osm_type": "node", "osm_id": 7528839984, "category": "storage", "type_de": "Löschwasserbehälter/Zisterne", "all_tags": { "emergency": "water_tank", "fire_hydrant:position": "green", "fire_hydrant:pressure": "suction", "survey:date": "2020-05-17", "water_source": "water_tank" }, "name": null, "ref": null, "operator": null, "access": null, "description": null, "note": null, "check_date": null, "fire_hydrant_type": null, "fire_hydrant_diameter": null, "fire_hydrant_pressure": "suction", "fire_hydrant_couplings": null, "fire_hydrant_position": "green", "water_source": "water_tank", "water_tank_volume": null, "capacity": null, "diameter": null, "pressure": null, "source": null, "lon": 9.4919962, "lat": 53.4460454 }, "geometry": { "type": "Point", "coordinates": [ 9.4919962, 53.4460454 ] } },
{ "type": "Feature", "properties": { "osm_type": "node", "osm_id": 7528844396, "category": "storage", "type_de": "Löschwasserbehälter/Zisterne", "all_tags": { "emergency": "water_tank", "survey:date": "2020-05-17", "water_source": "water_tank" }, "name": null, "ref": null, "operator": null, "access": null, "description": null, "note": null, "check_date": null, "fire_hydrant_type": null, "fire_hydrant_diameter": null, "fire_hydrant_pressure": null, "fire_hydrant_couplings": null, "fire_hydrant_position": null, "water_source": "water_tank", "water_tank_volume": null, "capacity": null, "diameter": null, "pressure": null, "source": null, "lon": 9.5084856, "lat": 53.4562688 }, "geometry": { "type": "Point", "coordinates": [ 9.5084856, 53.4562688 ] } },
{ "type": "Feature", "properties": { "osm_type": "node", "osm_id": 7528844397, "category": "storage", "type_de": "Löschwasserbehälter/Zisterne", "all_tags": { "emergency": "water_tank", "survey:date": "2020-05-17", "water_source": "groundwater" }, "name": null, "ref": null, "operator": null, "access": null, "description": null, "note": null, "check_date": null, "fire_hydrant_type": null, "fire_hydrant_diameter": null, "fire_hydrant_pressure": null, "fire_hydrant_couplings": null, "fire_hydrant_position": null, "water_source": "groundwater", "water_tank_volume": null, "capacity": null, "diameter": null, "pressure": null, "source": null, "lon": 9.5117193, "lat": 53.4531338 }, "geometry": { "type": "Point", "coordinates": [ 9.5117193, 53.4531338 ] } },
{ "type": "Feature", "properties": { "osm_type": "node", "osm_id": 7528844398, "category": "storage", "type_de": "Löschwasserbehälter/Zisterne", "all_tags": { "emergency": "water_tank", "fire_hydrant:position": "green", "fire_hydrant:pressure": "suction", "survey:date": "2020-05-17", "water_source": "groundwater" }, "name": null, "ref": null, "operator": null, "access": null, "description": null, "note": null, "check_date": null, "fire_hydrant_type": null, "fire_hydrant_diameter": null, "fire_hydrant_pressure": "suction", "fire_hydrant_couplings": null, "fire_hydrant_position": "green", "water_source": "groundwater", "water_tank_volume": null, "capacity": null, "diameter": null, "pressure": null, "source": null, "lon": 9.5191358, "lat": 53.4457406 }, "geometry": { "type": "Point", "coordinates": [ 9.5191358, 53.4457406 ] } },
{ "type": "Feature", "properties": { "osm_type": "node", "osm_id": 7538452909, "category": "storage", "type_de": "Löschwasserbehälter/Zisterne", "all_tags": { "emergency": "water_tank", "name": "Kartoffelbrot Richters", "survey:date": "2020-05-19" }, "name": "Kartoffelbrot Richters", "ref": null, "operator": null, "access": null, "description": null, "note": null, "check_date": null, "fire_hydrant_type": null, "fire_hydrant_diameter": null, "fire_hydrant_pressure": null, "fire_hydrant_couplings": null, "fire_hydrant_position": null, "water_source": null, "water_tank_volume": null, "capacity": null, "diameter": null, "pressure": null, "source": null, "lon": 9.4222892, "lat": 53.478684 }, "geometry": { "type": "Point", "coordinates": [ 9.4222892, 53.478684 ] } },
{ "type": "Feature", "properties": { "osm_type": "node", "osm_id": 7577129438, "category": "storage", "type_de": "Löschwasserbehälter/Zisterne", "all_tags": { "description": "Zisterne Feuerwehrhaus Oldendorf", "emergency": "water_tank", "name": "Zisterne Feuerwehrhaus Oldendorf", "ref": "34-9-1", "survey:date": "2020-06-01", "water_tank:volume": "150.000" }, "name": "Zisterne Feuerwehrhaus Oldendorf", "ref": "34-9-1", "operator": null, "access": null, "description": "Zisterne Feuerwehrhaus Oldendorf", "note": null, "check_date": null, "fire_hydrant_type": null, "fire_hydrant_diameter": null, "fire_hydrant_pressure": null, "fire_hydrant_couplings": null, "fire_hydrant_position": null, "water_source": null, "water_tank_volume": "150.000", "capacity": null, "diameter": null, "pressure": null, "source": null, "lon": 9.2526716, "lat": 53.5877334 }, "geometry": { "type": "Point", "coordinates": [ 9.2526716, 53.5877334 ] } },
{ "type": "Feature", "properties": { "osm_type": "node", "osm_id": 7599902535, "category": "storage", "type_de": "Löschwasserbehälter/Zisterne", "all_tags": { "emergency": "water_tank", "name": "Viebrock Hof", "survey:date": "2020-06-07" }, "name": "Viebrock Hof", "ref": null, "operator": null, "access": null, "description": null, "note": null, "check_date": null, "fire_hydrant_type": null, "fire_hydrant_diameter": null, "fire_hydrant_pressure": null, "fire_hydrant_couplings": null, "fire_hydrant_position": null, "water_source": null, "water_tank_volume": null, "capacity": null, "diameter": null, "pressure": null, "source": null, "lon": 9.5195293, "lat": 53.4464276 }, "geometry": { "type": "Point", "coordinates": [ 9.5195293, 53.4464276 ] } },
{ "type": "Feature", "properties": { "osm_type": "node", "osm_id": 7834949815, "category": "storage", "type_de": "Löschwasserbehälter/Zisterne", "all_tags": { "description": "Teich Rathaus", "emergency": "water_tank", "name": "Teich Rathaus", "ref": "34-9-56", "survey:date": "2020-08-22", "water_tank:volume": "100.000" }, "name": "Teich Rathaus", "ref": "34-9-56", "operator": null, "access": null, "description": "Teich Rathaus", "note": null, "check_date": null, "fire_hydrant_type": null, "fire_hydrant_diameter": null, "fire_hydrant_pressure": null, "fire_hydrant_couplings": null, "fire_hydrant_position": null, "water_source": null, "water_tank_volume": "100.000", "capacity": null, "diameter": null, "pressure": null, "source": null, "lon": 9.2549676, "lat": 53.588356 }, "geometry": { "type": "Point", "coordinates": [ 9.2549676, 53.588356 ] } },
{ "type": "Feature", "properties": { "osm_type": "node", "osm_id": 7834955643, "category": "storage", "type_de": "Löschwasserbehälter/Zisterne", "all_tags": { "description": "Teich Schweinestall ", "emergency": "water_tank", "name": "Schweinestall Blumenthaler Weg", "ref": "34-9-55", "survey:date": "2020-08-22", "water_tank:volume": "50.000" }, "name": "Schweinestall Blumenthaler Weg", "ref": "34-9-55", "operator": null, "access": null, "description": "Teich Schweinestall ", "note": null, "check_date": null, "fire_hydrant_type": null, "fire_hydrant_diameter": null, "fire_hydrant_pressure": null, "fire_hydrant_couplings": null, "fire_hydrant_position": null, "water_source": null, "water_tank_volume": "50.000", "capacity": null, "diameter": null, "pressure": null, "source": null, "lon": 9.2467815, "lat": 53.5982864 }, "geometry": { "type": "Point", "coordinates": [ 9.2467815, 53.5982864 ] } },
{ "type": "Feature", "properties": { "osm_type": "node", "osm_id": 8176495061, "category": "storage", "type_de": "Löschwasserbehälter/Zisterne", "all_tags": { "emergency": "water_tank", "water_tank:volume": "300000" }, "name": null, "ref": null, "operator": null, "access": null, "description": null, "note": null, "check_date": null, "fire_hydrant_type": null, "fire_hydrant_diameter": null, "fire_hydrant_pressure": null, "fire_hydrant_couplings": null, "fire_hydrant_position": null, "water_source": null, "water_tank_volume": "300000", "capacity": null, "diameter": null, "pressure": null, "source": null, "lon": 9.2427372, "lat": 53.4910731 }, "geometry": { "type": "Point", "coordinates": [ 9.2427372, 53.4910731 ] } },
{ "type": "Feature", "properties": { "osm_type": "node", "osm_id": 8285997461, "category": "storage", "type_de": "Löschwasserbehälter/Zisterne", "all_tags": { "description": "Zisterne Stall Haack", "emergency": "water_tank", "name": "Zisterne Stall An der Landstraße", "ref": "34-9-59", "survey:date": "2021-01-03", "water_tank:volume": "75.000" }, "name": "Zisterne Stall An der Landstraße", "ref": "34-9-59", "operator": null, "access": null, "description": "Zisterne Stall Haack", "note": null, "check_date": null, "fire_hydrant_type": null, "fire_hydrant_diameter": null, "fire_hydrant_pressure": null, "fire_hydrant_couplings": null, "fire_hydrant_position": null, "water_source": null, "water_tank_volume": "75.000", "capacity": null, "diameter": null, "pressure": null, "source": null, "lon": 9.2792737, "lat": 53.5965609 }, "geometry": { "type": "Point", "coordinates": [ 9.2792737, 53.5965609 ] } },
{ "type": "Feature", "properties": { "osm_type": "node", "osm_id": 8308561400, "category": "storage", "type_de": "Löschwasserbehälter/Zisterne", "all_tags": { "emergency": "water_tank", "survey:date": "2021-01-10" }, "name": null, "ref": null, "operator": null, "access": null, "description": null, "note": null, "check_date": null, "fire_hydrant_type": null, "fire_hydrant_diameter": null, "fire_hydrant_pressure": null, "fire_hydrant_couplings": null, "fire_hydrant_position": null, "water_source": null, "water_tank_volume": null, "capacity": null, "diameter": null, "pressure": null, "source": null, "lon": 9.5095602, "lat": 53.4818004 }, "geometry": { "type": "Point", "coordinates": [ 9.5095602, 53.4818004 ] } },
{ "type": "Feature", "properties": { "osm_type": "node", "osm_id": 8503525008, "category": "storage", "type_de": "Löschwasserteich", "all_tags": { "emergency": "fire_water_pond", "water_source": "pond" }, "name": null, "ref": null, "operator": null, "access": null, "description": null, "note": null, "check_date": null, "fire_hydrant_type": null, "fire_hydrant_diameter": null, "fire_hydrant_pressure": null, "fire_hydrant_couplings": null, "fire_hydrant_position": null, "water_source": "pond", "water_tank_volume": null, "capacity": null, "diameter": null, "pressure": null, "source": null, "lon": 9.2648244, "lat": 53.4744048 }, "geometry": { "type": "Point", "coordinates": [ 9.2648244, 53.4744048 ] } },
{ "type": "Feature", "properties": { "osm_type": "node", "osm_id": 8503525009, "category": "storage", "type_de": "Löschwasserteich", "all_tags": { "emergency": "fire_water_pond", "water_source": "pond" }, "name": null, "ref": null, "operator": null, "access": null, "description": null, "note": null, "check_date": null, "fire_hydrant_type": null, "fire_hydrant_diameter": null, "fire_hydrant_pressure": null, "fire_hydrant_couplings": null, "fire_hydrant_position": null, "water_source": "pond", "water_tank_volume": null, "capacity": null, "diameter": null, "pressure": null, "source": null, "lon": 9.2710448, "lat": 53.4734486 }, "geometry": { "type": "Point", "coordinates": [ 9.2710448, 53.4734486 ] } },
{ "type": "Feature", "properties": { "osm_type": "node", "osm_id": 8672576212, "category": "storage", "type_de": "Löschwasserteich", "all_tags": { "description": "Offenes Gewässer Saugstelle", "emergency": "fire_water_pond", "fire_hydrant:position": "green", "fire_hydrant:pressure": "suction", "name": "Regenrückhaltebecken", "source": "local knowledge", "survey:date": "2021-04-27", "water_source": "pond" }, "name": "Regenrückhaltebecken", "ref": null, "operator": null, "access": null, "description": "Offenes Gewässer Saugstelle", "note": null, "check_date": null, "fire_hydrant_type": null, "fire_hydrant_diameter": null, "fire_hydrant_pressure": "suction", "fire_hydrant_couplings": null, "fire_hydrant_position": "green", "water_source": "pond", "water_tank_volume": null, "capacity": null, "diameter": null, "pressure": null, "source": "local knowledge", "lon": 9.4844708, "lat": 53.3975604 }, "geometry": { "type": "Point", "coordinates": [ 9.4844708, 53.3975604 ] } },
{ "type": "Feature", "properties": { "osm_type": "node", "osm_id": 9909959371, "category": "storage", "type_de": "Löschwasserteich", "all_tags": { "emergency": "fire_water_pond", "water_source": "pond" }, "name": null, "ref": null, "operator": null, "access": null, "description": null, "note": null, "check_date": null, "fire_hydrant_type": null, "fire_hydrant_diameter": null, "fire_hydrant_pressure": null, "fire_hydrant_couplings": null, "fire_hydrant_position": null, "water_source": "pond", "water_tank_volume": null, "capacity": null, "diameter": null, "pressure": null, "source": null, "lon": 9.1704203, "lat": 53.5647472 }, "geometry": { "type": "Point", "coordinates": [ 9.1704203, 53.5647472 ] } },
{ "type": "Feature", "properties": { "osm_type": "node", "osm_id": 9909959372, "category": "storage", "type_de": "Löschwasserteich", "all_tags": { "emergency": "fire_water_pond", "water_source": "pond" }, "name": null, "ref": null, "operator": null, "access": null, "description": null, "note": null, "check_date": null, "fire_hydrant_type": null, "fire_hydrant_diameter": null, "fire_hydrant_pressure": null, "fire_hydrant_couplings": null, "fire_hydrant_position": null, "water_source": "pond", "water_tank_volume": null, "capacity": null, "diameter": null, "pressure": null, "source": null, "lon": 9.1665675, "lat": 53.5742879 }, "geometry": { "type": "Point", "coordinates": [ 9.1665675, 53.5742879 ] } },
{ "type": "Feature", "properties": { "osm_type": "node", "osm_id": 9909959373, "category": "storage", "type_de": "Löschwasserteich", "all_tags": { "emergency": "fire_water_pond", "water_source": "pond" }, "name": null, "ref": null, "operator": null, "access": null, "description": null, "note": null, "check_date": null, "fire_hydrant_type": null, "fire_hydrant_diameter": null, "fire_hydrant_pressure": null, "fire_hydrant_couplings": null, "fire_hydrant_position": null, "water_source": "pond", "water_tank_volume": null, "capacity": null, "diameter": null, "pressure": null, "source": null, "lon": 9.1677001, "lat": 53.572262 }, "geometry": { "type": "Point", "coordinates": [ 9.1677001, 53.572262 ] } },
{ "type": "Feature", "properties": { "osm_type": "node", "osm_id": 9999973122, "category": "storage", "type_de": "Löschwasserbehälter/Zisterne", "all_tags": { "emergency": "water_tank", "survey:date": "2022-09-04" }, "name": null, "ref": null, "operator": null, "access": null, "description": null, "note": null, "check_date": null, "fire_hydrant_type": null, "fire_hydrant_diameter": null, "fire_hydrant_pressure": null, "fire_hydrant_couplings": null, "fire_hydrant_position": null, "water_source": null, "water_tank_volume": null, "capacity": null, "diameter": null, "pressure": null, "source": null, "lon": 9.6161699, "lat": 53.4433882 }, "geometry": { "type": "Point", "coordinates": [ 9.6161699, 53.4433882 ] } },
{ "type": "Feature", "properties": { "osm_type": "node", "osm_id": 10000000341, "category": "storage", "type_de": "Löschwasserbehälter/Zisterne", "all_tags": { "emergency": "water_tank", "survey:date": "2022-09-04" }, "name": null, "ref": null, "operator": null, "access": null, "description": null, "note": null, "check_date": null, "fire_hydrant_type": null, "fire_hydrant_diameter": null, "fire_hydrant_pressure": null, "fire_hydrant_couplings": null, "fire_hydrant_position": null, "water_source": null, "water_tank_volume": null, "capacity": null, "diameter": null, "pressure": null, "source": null, "lon": 9.6149039, "lat": 53.4424073 }, "geometry": { "type": "Point", "coordinates": [ 9.6149039, 53.4424073 ] } },
{ "type": "Feature", "properties": { "osm_type": "node", "osm_id": 10023393864, "category": "storage", "type_de": "Löschwasserbehälter/Zisterne", "all_tags": { "emergency": "water_tank", "survey:date": "2022-09-14" }, "name": null, "ref": null, "operator": null, "access": null, "description": null, "note": null, "check_date": null, "fire_hydrant_type": null, "fire_hydrant_diameter": null, "fire_hydrant_pressure": null, "fire_hydrant_couplings": null, "fire_hydrant_position": null, "water_source": null, "water_tank_volume": null, "capacity": null, "diameter": null, "pressure": null, "source": null, "lon": 9.6167278, "lat": 53.4125568 }, "geometry": { "type": "Point", "coordinates": [ 9.6167278, 53.4125568 ] } },
{ "type": "Feature", "properties": { "osm_type": "node", "osm_id": 10105450832, "category": "storage", "type_de": "Löschwasserbehälter/Zisterne", "all_tags": { "emergency": "water_tank", "survey:date": "2022-10-16", "water_tank:volume": "8 m³" }, "name": null, "ref": null, "operator": null, "access": null, "description": null, "note": null, "check_date": null, "fire_hydrant_type": null, "fire_hydrant_diameter": null, "fire_hydrant_pressure": null, "fire_hydrant_couplings": null, "fire_hydrant_position": null, "water_source": null, "water_tank_volume": "8 m³", "capacity": null, "diameter": null, "pressure": null, "source": null, "lon": 9.6115083, "lat": 53.4349043 }, "geometry": { "type": "Point", "coordinates": [ 9.6115083, 53.4349043 ] } },
{ "type": "Feature", "properties": { "osm_type": "node", "osm_id": 12618958581, "category": "storage", "type_de": "Löschwasserbehälter/Zisterne", "all_tags": { "capacity": "75", "emergency": "water_tank", "man_made": "reservoir_covered" }, "name": null, "ref": null, "operator": null, "access": null, "description": null, "note": null, "check_date": null, "fire_hydrant_type": null, "fire_hydrant_diameter": null, "fire_hydrant_pressure": null, "fire_hydrant_couplings": null, "fire_hydrant_position": null, "water_source": null, "water_tank_volume": null, "capacity": "75", "diameter": null, "pressure": null, "source": null, "lon": 9.4046457, "lat": 53.4999071 }, "geometry": { "type": "Point", "coordinates": [ 9.4046457, 53.4999071 ] } },
{ "type": "Feature", "properties": { "osm_type": "node", "osm_id": 12630310618, "category": "storage", "type_de": "Löschwasserbehälter/Zisterne", "all_tags": { "capacity": "110", "couplings": "1", "emergency": "water_tank", "fire_hydrant:position": "green", "fire_hydrant:type": "pipe", "man_made": "reservoir_covered", "water_source": "water_tank" }, "name": null, "ref": null, "operator": null, "access": null, "description": null, "note": null, "check_date": null, "fire_hydrant_type": "pipe", "fire_hydrant_diameter": null, "fire_hydrant_pressure": null, "fire_hydrant_couplings": null, "fire_hydrant_position": "green", "water_source": "water_tank", "water_tank_volume": null, "capacity": "110", "diameter": null, "pressure": null, "source": null, "lon": 9.4362728, "lat": 53.495979 }, "geometry": { "type": "Point", "coordinates": [ 9.4362728, 53.495979 ] } },
{ "type": "Feature", "properties": { "osm_type": "node", "osm_id": 12809435932, "category": "storage", "type_de": "Löschwasserteich", "all_tags": { "emergency": "fire_water_pond", "water_source": "pond" }, "name": null, "ref": null, "operator": null, "access": null, "description": null, "note": null, "check_date": null, "fire_hydrant_type": null, "fire_hydrant_diameter": null, "fire_hydrant_pressure": null, "fire_hydrant_couplings": null, "fire_hydrant_position": null, "water_source": "pond", "water_tank_volume": null, "capacity": null, "diameter": null, "pressure": null, "source": null, "lon": 9.5548397, "lat": 53.3440826 }, "geometry": { "type": "Point", "coordinates": [ 9.5548397, 53.3440826 ] } },
{ "type": "Feature", "properties": { "osm_type": "node", "osm_id": 13441850827, "category": "storage", "type_de": "Löschwasserbehälter/Zisterne", "all_tags": { "content": "water", "emergency": "water_tank", "man_made": "storage_tank", "operator": "Rutensteiner Bioenergie", "water_tank:volume": "100000" }, "name": null, "ref": null, "operator": "Rutensteiner Bioenergie", "access": null, "description": null, "note": null, "check_date": null, "fire_hydrant_type": null, "fire_hydrant_diameter": null, "fire_hydrant_pressure": null, "fire_hydrant_couplings": null, "fire_hydrant_position": null, "water_source": null, "water_tank_volume": "100000", "capacity": null, "diameter": null, "pressure": null, "source": null, "lon": 9.2917872, "lat": 53.8166342 }, "geometry": { "type": "Point", "coordinates": [ 9.2917872, 53.8166342 ] } },
{ "type": "Feature", "properties": { "osm_type": "way", "osm_id": 31770587, "category": "storage", "type_de": "Löschwasserteich", "all_tags": { "emergency": "fire_water_pond", "fishing": "private", "intermittent": "no", "natural": "water", "salt": "no", "tidal": "no", "water": "pond" }, "name": null, "ref": null, "operator": null, "access": null, "description": null, "note": null, "check_date": null, "fire_hydrant_type": null, "fire_hydrant_diameter": null, "fire_hydrant_pressure": null, "fire_hydrant_couplings": null, "fire_hydrant_position": null, "water_source": null, "water_tank_volume": null, "capacity": null, "diameter": null, "pressure": null, "source": null, "lon": 9.5696222, "lat": 53.5169397 }, "geometry": { "type": "LineString", "coordinates": [ [ 9.5693701, 53.5171144 ], [ 9.5693735, 53.5170598 ], [ 9.5693814, 53.5170252 ], [ 9.5693991, 53.5169921 ], [ 9.5694342, 53.5169773 ], [ 9.5694816, 53.5169655 ], [ 9.5695531, 53.5169486 ], [ 9.5696222, 53.5169397 ], [ 9.5697464, 53.5169295 ], [ 9.5698225, 53.5169493 ], [ 9.5698723, 53.5169971 ], [ 9.5699025, 53.5170413 ], [ 9.5699187, 53.5170839 ], [ 9.5699077, 53.5171324 ], [ 9.569876, 53.5171956 ], [ 9.5698248, 53.517259 ], [ 9.5697452, 53.517323 ], [ 9.5696528, 53.5173289 ], [ 9.5695134, 53.517337 ], [ 9.5693775, 53.5173016 ], [ 9.569369, 53.5172645 ], [ 9.5693847, 53.5172317 ], [ 9.5693701, 53.5171144 ] ] } },
{ "type": "Feature", "properties": { "osm_type": "way", "osm_id": 31770588, "category": "storage", "type_de": "Löschwasserteich", "all_tags": { "emergency": "fire_water_pond", "natural": "water", "water": "pond" }, "name": null, "ref": null, "operator": null, "access": null, "description": null, "note": null, "check_date": null, "fire_hydrant_type": null, "fire_hydrant_diameter": null, "fire_hydrant_pressure": null, "fire_hydrant_couplings": null, "fire_hydrant_position": null, "water_source": null, "water_tank_volume": null, "capacity": null, "diameter": null, "pressure": null, "source": null, "lon": 9.5707705, "lat": 53.5176731 }, "geometry": { "type": "LineString", "coordinates": [ [ 9.5703575, 53.5174624 ], [ 9.5706359, 53.517247 ], [ 9.5708568, 53.5172947 ], [ 9.5709374, 53.5173126 ], [ 9.5709541, 53.5173218 ], [ 9.5709609, 53.5173368 ], [ 9.5709604, 53.5173651 ], [ 9.5709275, 53.5174903 ], [ 9.5708861, 53.5175861 ], [ 9.5708225, 53.5176488 ], [ 9.5707705, 53.5176731 ], [ 9.5706029, 53.5177271 ], [ 9.570386, 53.5176318 ], [ 9.5703189, 53.5175789 ], [ 9.5703575, 53.5174624 ] ] } },
{ "type": "Feature", "properties": { "osm_type": "way", "osm_id": 1216182485, "category": "storage", "type_de": "Löschwasserbehälter/Zisterne", "all_tags": { "emergency": "water_tank", "natural": "water", "water": "reservoir" }, "name": null, "ref": null, "operator": null, "access": null, "description": null, "note": null, "check_date": null, "fire_hydrant_type": null, "fire_hydrant_diameter": null, "fire_hydrant_pressure": null, "fire_hydrant_couplings": null, "fire_hydrant_position": null, "water_source": null, "water_tank_volume": null, "capacity": null, "diameter": null, "pressure": null, "source": null, "lon": 9.5005137, "lat": 53.5594297 }, "geometry": { "type": "LineString", "coordinates": [ [ 9.5003785, 53.5593967 ], [ 9.5003467, 53.5592146 ], [ 9.5006156, 53.5592118 ], [ 9.5006503, 53.5594312 ], [ 9.5005137, 53.5594297 ], [ 9.5003785, 53.5593967 ] ] } }
]
}
